{
  "links" : {
    "next" : "https://api.nasa.gov/neo/rest/v1/feed?start_date=2011-04-09&end_date=2011-04-09&detailed=true&api_key=t0TVs3DtDT2H8Oy2Zy8m2eVrNsAVKAexjcZXUckd",
    "prev" : "https://api.nasa.gov/neo/rest/v1/feed?start_date=2011-04-07&end_date=2011-04-07&detailed=true&api_key=t0TVs3DtDT2H8Oy2Zy8m2eVrNsAVKAexjcZXUckd",
    "self" : "https://api.nasa.gov/neo/rest/v1/feed?start_date=2011-04-08&end_date=2011-04-08&detailed=true&api_key=t0TVs3DtDT2H8Oy2Zy8m2eVrNsAVKAexjcZXUckd"
  },
  "element_count" : 6,
  "near_earth_objects" : {
    "2011-04-08" : [ {
      "links" : {
        "self" : "https://api.nasa.gov/neo/rest/v1/neo/2152931?api_key=t0TVs3DtDT2H8Oy2Zy8m2eVrNsAVKAexjcZXUckd"
      },
      "neo_reference_id" : "2152931",
      "name" : "152931 (2000 EA107)",
      "nasa_jpl_url" : "http://ssd.jpl.nasa.gov/sbdb.cgi?sstr=2152931",
      "absolute_magnitude_h" : 16.0,
      "estimated_diameter" : {
        "kilometers" : {
          "estimated_diameter_min" : 1.6770846216,
          "estimated_diameter_max" : 3.750075218
        },
        "meters" : {
          "estimated_diameter_min" : 1677.0846216284,
          "estimated_diameter_max" : 3750.0752179805
        },
        "miles" : {
          "estimated_diameter_min" : 1.0420917484,
          "estimated_diameter_max" : 2.3301879883
        },
        "feet" : {
          "estimated_diameter_min" : 5502.2463100232,
          "estimated_diameter_max" : 12303.3967781592
        }
      },
      "is_potentially_hazardous_asteroid" : false,
      "close_approach_data" : [ {
        "close_approach_date" : "2011-04-08",
        "epoch_date_close_approach" : 1302246000000,
        "relative_velocity" : {
          "kilometers_per_second" : "31.3884631791",
          "kilometers_per_hour" : "112998.4674446837",
          "miles_per_hour" : "70212.8532852814"
        },
        "miss_distance" : {
          "astronomical" : "0.4506054531",
          "lunar" : "175.2855224609",
          "kilometers" : "67409616",
          "miles" : "41886392"
        },
        "orbiting_body" : "Earth"
      } ],
      "orbital_data" : {
        "orbit_id" : "132",
        "orbit_determination_date" : "2017-08-15 06:22:05",
        "orbit_uncertainty" : "0",
        "minimum_orbit_intersection" : ".160932",
        "jupiter_tisserand_invariant" : "6.257",
        "epoch_osculation" : "2458000.5",
        "eccentricity" : ".4557420748527217",
        "semi_major_axis" : ".9297373077814783",
        "inclination" : "28.57736271999575",
        "ascending_node_longitude" : "52.90097723600763",
        "orbital_period" : "327.4453401402245",
        "perihelion_distance" : ".5060168980651639",
        "perihelion_argument" : "278.0241357331101",
        "aphelion_distance" : "1.353457717497793",
        "perihelion_time" : "2458001.574620321072",
        "mean_anomaly" : "358.8185407817365",
        "mean_motion" : "1.099420134810391",
        "equinox" : "J2000"
      }
    }, {
      "links" : {
        "self" : "https://api.nasa.gov/neo/rest/v1/neo/2252793?api_key=t0TVs3DtDT2H8Oy2Zy8m2eVrNsAVKAexjcZXUckd"
      },
      "neo_reference_id" : "2252793",
      "name" : "252793 (2002 FW5)",
      "nasa_jpl_url" : "http://ssd.jpl.nasa.gov/sbdb.cgi?sstr=2252793",
      "absolute_magnitude_h" : 19.2,
      "estimated_diameter" : {
        "kilometers" : {
          "estimated_diameter_min" : 0.3841978911,
          "estimated_diameter_max" : 0.8590926012
        },
        "meters" : {
          "estimated_diameter_min" : 384.1978910643,
          "estimated_diameter_max" : 859.0926012318
        },
        "miles" : {
          "estimated_diameter_min" : 0.2387294278,
          "estimated_diameter_max" : 0.5338152287
        },
        "feet" : {
          "estimated_diameter_min" : 1260.4918089193,
          "estimated_diameter_max" : 2818.5453698252
        }
      },
      "is_potentially_hazardous_asteroid" : false,
      "close_approach_data" : [ {
        "close_approach_date" : "2011-04-08",
        "epoch_date_close_approach" : 1302246000000,
        "relative_velocity" : {
          "kilometers_per_second" : "23.1177259843",
          "kilometers_per_hour" : "83223.8135433281",
          "miles_per_hour" : "51712.0412541863"
        },
        "miss_distance" : {
          "astronomical" : "0.2595911331",
          "lunar" : "100.9809494019",
          "kilometers" : "38834280",
          "miles" : "24130504"
        },
        "orbiting_body" : "Earth"
      } ],
      "orbital_data" : {
        "orbit_id" : "93",
        "orbit_determination_date" : "2017-05-11 06:16:47",
        "orbit_uncertainty" : "0",
        "minimum_orbit_intersection" : ".224056",
        "jupiter_tisserand_invariant" : "4.633",
        "epoch_osculation" : "2458000.5",
        "eccentricity" : ".2177546520742673",
        "semi_major_axis" : "1.314899411148717",
        "inclination" : "46.44804088166741",
        "ascending_node_longitude" : "21.75193980628714",
        "orbital_period" : "550.7280834938044",
        "perihelion_distance" : "1.028573947361369",
        "perihelion_argument" : "85.46625051491108",
        "aphelion_distance" : "1.601224874936064",
        "perihelion_time" : "2457765.854510609301",
        "mean_anomaly" : "153.3830917878041",
        "mean_motion" : ".6536801205345649",
        "equinox" : "J2000"
      }
    }, {
      "links" : {
        "self" : "https://api.nasa.gov/neo/rest/v1/neo/3102784?api_key=t0TVs3DtDT2H8Oy2Zy8m2eVrNsAVKAexjcZXUckd"
      },
      "neo_reference_id" : "3102784",
      "name" : "(2002 BF25)",
      "nasa_jpl_url" : "http://ssd.jpl.nasa.gov/sbdb.cgi?sstr=3102784",
      "absolute_magnitude_h" : 22.2,
      "estimated_diameter" : {
        "kilometers" : {
          "estimated_diameter_min" : 0.096506147,
          "estimated_diameter_max" : 0.2157943048
        },
        "meters" : {
          "estimated_diameter_min" : 96.5061469579,
          "estimated_diameter_max" : 215.7943048444
        },
        "miles" : {
          "estimated_diameter_min" : 0.059966121,
          "estimated_diameter_max" : 0.134088323
        },
        "feet" : {
          "estimated_diameter_min" : 316.6212271853,
          "estimated_diameter_max" : 707.9865871058
        }
      },
      "is_potentially_hazardous_asteroid" : false,
      "close_approach_data" : [ {
        "close_approach_date" : "2011-04-08",
        "epoch_date_close_approach" : 1302246000000,
        "relative_velocity" : {
          "kilometers_per_second" : "6.8320885223",
          "kilometers_per_hour" : "24595.5186803966",
          "miles_per_hour" : "15282.6988156053"
        },
        "miss_distance" : {
          "astronomical" : "0.3300386241",
          "lunar" : "128.3850250244",
          "kilometers" : "49373076",
          "miles" : "30679008"
        },
        "orbiting_body" : "Earth"
      } ],
      "orbital_data" : {
        "orbit_id" : "38",
        "orbit_determination_date" : "2017-04-06 09:15:31",
        "orbit_uncertainty" : "0",
        "minimum_orbit_intersection" : ".0187398",
        "jupiter_tisserand_invariant" : "5.729",
        "epoch_osculation" : "2458000.5",
        "eccentricity" : ".2218865427623185",
        "semi_major_axis" : "1.073232502439458",
        "inclination" : "6.275099539598104",
        "ascending_node_longitude" : "305.927729010082",
        "orbital_period" : "406.1057623243763",
        "perihelion_distance" : ".8350966528930148",
        "perihelion_argument" : "78.01704224657533",
        "aphelion_distance" : "1.3113683519859",
        "perihelion_time" : "2457902.554022090328",
        "mean_anomaly" : "86.82603232632167",
        "mean_motion" : ".8864685837982537",
        "equinox" : "J2000"
      }
    } ]
  }
}